{"type": "FeatureCollection", "features": [ {"type": "Feature", "properties": {"norad_id": 35135, "name": "FENGYUN 1C DEB", "group": "fengyun-1c-debris", "lat": -32.296878161663216, "lon": 1.6974268893602849, "alt_km": 781.3181027953588, "timestamp": "2025-12-13T10:41:26.053627+00:00", "meta": {"OBJECT_NAME": "FENGYUN 1C DEB", "OBJECT_ID": "1999-025DLP", "EPOCH": "2025-12-10T06:52:44.806944", "MEAN_MOTION": 14.22529436, "ECCENTRICITY": 0.0080993, "INCLINATION": 98.565, "RA_OF_ASC_NODE": 353.1608, "ARG_OF_PERICENTER": 291.6551, "MEAN_ANOMALY": 67.6016, "EPHEMERIS_TYPE": 0, "CLASSIFICATION_TYPE": "U", "NORAD_CAT_ID": 35135, "ELEMENT_SET_NO": 999, "REV_AT_EPOCH": 87789, "BSTAR": 0.00073581, "MEAN_MOTION_DOT": 1.655e-05, "MEAN_MOTION_DDOT": 0}, "tle": {"line1": "1 35135U 99025DLP 25344.28662971  .00001655  00000+0  73581-3 0  9994", "line2": "2 35135  98.5650 353.1608 0080993 291.6551  67.6016 14.22529436877899"}}, "geometry": {"type": "Point", "coordinates": [1.6974268893602849, -32.296878161663216]}}, {"type": "Feature", "properties": {"norad_id": 35139, "name": "FENGYUN 1C DEB", "group": "fengyun-1c-debris", "lat": 55.55828238058469, "lon": -20.078777179110155, "alt_km": 841.2489798447232, "timestamp": "2025-12-13T10:41:26.053637+00:00", "meta": {"OBJECT_NAME": "FENGYUN 1C DEB", "OBJECT_ID": "1999-025DLT", "EPOCH": "2025-11-29T06:46:18.583392", "MEAN_MOTION": 14.21054019, "ECCENTRICITY": 0.00685814, "INCLINATION": 98.5841, "RA_OF_ASC_NODE": 338.8823, "ARG_OF_PERICENTER": 336.9878, "MEAN_ANOMALY": 22.8231, "EPHEMERIS_TYPE": 0, "CLASSIFICATION_TYPE": "U", "NORAD_CAT_ID": 35139, "ELEMENT_SET_NO": 999, "REV_AT_EPOCH": 63962, "BSTAR": 0.00042081079, "MEAN_MOTION_DOT": 8.92e-06, "MEAN_MOTION_DDOT": 0}, "tle": {"line1": "1 35139U 99025DLT 25333.28215953  .00000892  00000+0  42081-3 0  9993", "line2": "2 35139  98.5841 338.8823 0068581 336.9878  22.8231 14.21054019639626"}}, "geometry": {"type": "Point", "coordinates": [-20.078777179110155, 55.55828238058469]}}, {"type": "Feature", "properties": {"norad_id": 35140, "name": "FENGYUN 1C DEB", "group": "fengyun-1c-debris", "lat": 35.01594300992757, "lon": 154.76627570850155, "alt_km": 1027.795275062459, "timestamp": "2025-12-13T10:41:26.053648+00:00", "meta": {"OBJECT_NAME": "FENGYUN 1C DEB", "OBJECT_ID": "1999-025DLU", "EPOCH": "2025-12-10T16:06:55.950624", "MEAN_MOTION": 14.21341225, "ECCENTRICITY": 0.02908031, "INCLINATION": 98.446, "RA_OF_ASC_NODE": 326.133, "ARG_OF_PERICENTER": 332.6918, "MEAN_ANOMALY": 25.9222, "EPHEMERIS_TYPE": 0, "CLASSIFICATION_TYPE": "U", "NORAD_CAT_ID": 35140, "ELEMENT_SET_NO": 999, "REV_AT_EPOCH": 87249, "BSTAR": 0.00040593538, "MEAN_MOTION_DOT": 1.31e-05, "MEAN_MOTION_DDOT": 0}, "tle": {"line1": "1 35140U 99025DLU 25344.67148091  .00001310  00000+0  40594-3 0  9991", "line2": "2 35140  98.4460 326.1330 0290803 332.6918  25.9222 14.21341225872495"}}, "geometry": {"type": "Point", "coordinates": [154.76627570850155, 35.01594300992757]}}, {"type": "Feature", "properties": {"norad_id": 35142, "name": "FENGYUN 1C DEB", "group": "fengyun-1c-debris", "lat": 0.18858179520334825, "lon": -20.448521280126208, "alt_km": 996.2016206642193, "timestamp": "2025-12-13T10:41:26.053658+00:00", "meta": {"OBJECT_NAME": "FENGYUN 1C DEB", "OBJECT_ID": "1999-025DLW", "EPOCH": "2025-12-10T17:57:11.594304", "MEAN_MOTION": 13.90505391, "ECCENTRICITY": 0.01075768, "INCLINATION": 99.0447, "RA_OF_ASC_NODE": 336.9569, "ARG_OF_PERICENTER": 219.5001, "MEAN_ANOMALY": 324.8218, "EPHEMERIS_TYPE": 0, "CLASSIFICATION_TYPE": "U", "NORAD_CAT_ID": 35142, "ELEMENT_SET_NO": 999, "REV_AT_EPOCH": 85661, "BSTAR": 0.00028188701, "MEAN_MOTION_DOT": 3.24e-06, "MEAN_MOTION_DDOT": 0}, "tle": {"line1": "1 35142U 99025DLW 25344.74805086  .00000324  00000+0  28189-3 0  9995", "line2": "2 35142  99.0447 336.9569 0107576 219.5001 324.8218 13.90505391856615"}}, "geometry": {"type": "Point", "coordinates": [-20.448521280126208, 0.18858179520334825]}}, {"type": "Feature", "properties": {"norad_id": 35144, "name": "FENGYUN 1C DEB", "group": "fengyun-1c-debris", "lat": 72.70295338153473, "lon": 73.37885179004891, "alt_km": 683.8729216154588, "timestamp": "2025-12-13T10:41:26.053668+00:00", "meta": {"OBJECT_NAME": "FENGYUN 1C DEB", "OBJECT_ID": "1999-025DLY", "EPOCH": "2025-12-11T13:54:55.730016", "MEAN_MOTION": 14.59153521, "ECCENTRICITY": 0.0026594, "INCLINATION": 98.6992, "RA_OF_ASC_NODE": 100.875, "ARG_OF_PERICENTER": 5.3698, "MEAN_ANOMALY": 354.778, "EPHEMERIS_TYPE": 0, "CLASSIFICATION_TYPE": "U", "NORAD_CAT_ID": 35144, "ELEMENT_SET_NO": 999, "REV_AT_EPOCH": 65196, "BSTAR": 0.0041915394, "MEAN_MOTION_DOT": 0.00019845, "MEAN_MOTION_DDOT": 0}, "tle": {"line1": "1 35144U 99025DLY 25345.57981169  .00019845  00000+0  41915-2 0  9995", "line2": "2 35144  98.6992 100.8750 0026594   5.3698 354.7780 14.59153521651967"}}, "geometry": {"type": "Point", "coordinates": [73.37885179004891, 72.70295338153473]}}, {"type": "Feature", "properties": {"norad_id": 35147, "name": "FENGYUN 1C DEB", "group": "fengyun-1c-debris", "lat": -55.54790052884392, "lon": 74.96445965413864, "alt_km": 659.6709887807165, "timestamp": "2025-12-13T10:41:26.053678+00:00", "meta": {"OBJECT_NAME": "FENGYUN 1C DEB", "OBJECT_ID": "1999-025DMB", "EPOCH": "2025-12-12T04:00:01.085472", "MEAN_MOTION": 14.74258737, "ECCENTRICITY": 0.00274327, "INCLINATION": 99.4864, "RA_OF_ASC_NODE": 59.3629, "ARG_OF_PERICENTER": 200.9205, "MEAN_ANOMALY": 159.0879, "EPHEMERIS_TYPE": 0, "CLASSIFICATION_TYPE": "U", "NORAD_CAT_ID": 35147, "ELEMENT_SET_NO": 999, "REV_AT_EPOCH": 74296, "BSTAR": 0.0038669119, "MEAN_MOTION_DOT": 0.00025751, "MEAN_MOTION_DDOT": 0}, "tle": {"line1": "1 35147U 99025DMB 25346.16667923  .00025751  00000+0  38669-2 0  9998", "line2": "2 35147  99.4864  59.3629 0027432 200.9205 159.0879 14.74258737742967"}}, "geometry": {"type": "Point", "coordinates": [74.96445965413864, -55.54790052884392]}}, {"type": "Feature", "properties": {"norad_id": 35152, "name": "FENGYUN 1C DEB", "group": "fengyun-1c-debris", "lat": 31.53536934986684, "lon": -3.7437673774139903, "alt_km": 1073.1327028081987, "timestamp": "2025-12-13T10:41:26.053689+00:00", "meta": {"OBJECT_NAME": "FENGYUN 1C DEB", "OBJECT_ID": "1999-025DMG", "EPOCH": "2025-12-09T06:32:50.767584", "MEAN_MOTION": 13.76426124, "ECCENTRICITY": 0.019481, "INCLINATION": 99.8191, "RA_OF_ASC_NODE": 165.8523, "ARG_OF_PERICENTER": 24.4192, "MEAN_ANOMALY": 336.6036, "EPHEMERIS_TYPE": 0, "CLASSIFICATION_TYPE": "U", "NORAD_CAT_ID": 35152, "ELEMENT_SET_NO": 999, "REV_AT_EPOCH": 62145, "BSTAR": 0.0008876, "MEAN_MOTION_DOT": 9.5e-06, "MEAN_MOTION_DDOT": 0}, "tle": {"line1": "1 35152U 99025DMG 25343.27280981  .00000950  00000+0  88760-3 0  9990", "line2": "2 35152  99.8191 165.8523 0194810  24.4192 336.6036 13.76426124621451"}}, "geometry": {"type": "Point", "coordinates": [-3.7437673774139903, 31.53536934986684]}}, {"type": "Feature", "properties": {"norad_id": 35153, "name": "FENGYUN 1C DEB", "group": "fengyun-1c-debris", "lat": -70.26199875784069, "lon": 33.41474356440465, "alt_km": 775.3471785627798, "timestamp": "2025-12-13T10:41:26.053699+00:00", "meta": {"OBJECT_NAME": "FENGYUN 1C DEB", "OBJECT_ID": "1999-025DMH", "EPOCH": "2025-12-10T22:53:53.083104", "MEAN_MOTION": 14.7371709, "ECCENTRICITY": 0.0171271, "INCLINATION": 98.902, "RA_OF_ASC_NODE": 236.5834, "ARG_OF_PERICENTER": 88.7296, "MEAN_ANOMALY": 273.3523, "EPHEMERIS_TYPE": 0, "CLASSIFICATION_TYPE": "U", "NORAD_CAT_ID": 35153, "ELEMENT_SET_NO": 999, "REV_AT_EPOCH": 97191, "BSTAR": 0.00051843, "MEAN_MOTION_DOT": 4.214e-05, "MEAN_MOTION_DDOT": 0}, "tle": {"line1": "1 35153U 99025DMH 25344.95408661  .00004214  00000+0  51843-3 0  9993", "line2": "2 35153  98.9020 236.5834 0171271  88.7296 273.3523 14.73717090971918"}}, "geometry": {"type": "Point", "coordinates": [33.41474356440465, -70.26199875784069]}}, {"type": "Feature", "properties": {"norad_id": 35154, "name": "FENGYUN 1C DEB", "group": "fengyun-1c-debris", "lat": 57.128498639198135, "lon": 94.08109522858965, "alt_km": 700.3070679249904, "timestamp": "2025-12-13T10:41:26.053709+00:00", "meta": {"OBJECT_NAME": "FENGYUN 1C DEB", "OBJECT_ID": "1999-025DMJ", "EPOCH": "2025-12-11T14:25:27.188832", "MEAN_MOTION": 14.18895758, "ECCENTRICITY": 0.01793749, "INCLINATION": 99.4214, "RA_OF_ASC_NODE": 107.0097, "ARG_OF_PERICENTER": 45.6577, "MEAN_ANOMALY": 315.9139, "EPHEMERIS_TYPE": 0, "CLASSIFICATION_TYPE": "U", "NORAD_CAT_ID": 35154, "ELEMENT_SET_NO": 999, "REV_AT_EPOCH": 64561, "BSTAR": 0.00044304667, "MEAN_MOTION_DOT": 1.033e-05, "MEAN_MOTION_DDOT": 0}, "tle": {"line1": "1 35154U 99025DMJ 25345.60100913  .00001033  00000+0  44305-3 0  9997", "line2": "2 35154  99.4214 107.0097 0179374  45.6577 315.9139 14.18895758645617"}}, "geometry": {"type": "Point", "coordinates": [94.08109522858965, 57.128498639198135]}}, {"type": "Feature", "properties": {"norad_id": 35155, "name": "FENGYUN 1C DEB", "group": "fengyun-1c-debris", "lat": 0.6461990561714118, "lon": 179.18168022942072, "alt_km": 836.9521356502282, "timestamp": "2025-12-13T10:41:26.053719+00:00", "meta": {"OBJECT_NAME": "FENGYUN 1C DEB", "OBJECT_ID": "1999-025DMK", "EPOCH": "2025-12-01T18:40:23.892384", "MEAN_MOTION": 14.19237116, "ECCENTRICITY": 0.00262936, "INCLINATION": 98.5005, "RA_OF_ASC_NODE": 347.8913, "ARG_OF_PERICENTER": 103.4458, "MEAN_ANOMALY": 256.9651, "EPHEMERIS_TYPE": 0, "CLASSIFICATION_TYPE": "U", "NORAD_CAT_ID": 35155, "ELEMENT_SET_NO": 999, "REV_AT_EPOCH": 72558, "BSTAR": 0.00064940785, "MEAN_MOTION_DOT": 1.325e-05, "MEAN_MOTION_DDOT": 0}, "tle": {"line1": "1 35155U 99025DMK 25335.77805431  .00001325  00000+0  64941-3 0  9994", "line2": "2 35155  98.5005 347.8913 0026293 103.4458 256.9651 14.19237116725586"}}, "geometry": {"type": "Point", "coordinates": [179.18168022942072, 0.6461990561714118]}}]}